FLOCK 4G-22             
1 62645U 25009AN  26095.48285777  .00014874  00000+0  54810-3 0  9993
2 62645  97.4019 177.9288 0002900 163.0062 197.1275 15.27911899 67812
FLOCK 4G-25             
1 62646U 25009AP  26095.20741883  .00013836  00000+0  50753-3 0  9998
2 62646  97.4022 177.6954 0002297 166.1910 193.9393 15.28082554 67777
FLOCK 4G-23             
1 62647U 25009AQ  26095.18099646  .00013094  00000+0  48334-3 0  9997
2 62647  97.3952 177.2010 0001843 178.2652 181.8594 15.27887778 67769
FLOCK 4G-34             
1 62650U 25009AT  26095.19823488  .00014620  00000+0  54016-3 0  9991
2 62650  97.3974 177.2727 0002181 162.9988 197.1325 15.27830248 67762
FLOCK 4G-21             
1 62651U 25009AU  26095.48990747  .00016979  00000+0  60204-3 0  9992
2 62651  97.4004 178.2709 0002125 165.2046 194.9257 15.29149939 67848
FLOCK 4G-31             
1 62652U 25009AV  26095.47808617  .00015031  00000+0  55764-3 0  9999
2 62652  97.3979 177.5432 0001750 158.7620 201.3693 15.27688631 67800
FLOCK 4G-4              
1 62659U 25009BC  26095.48758597  .00014113  00000+0  52721-3 0  9998
2 62659  97.3965 177.3031 0002265 184.8309 175.2909 15.27475664125401
FLOCK 4G-6              
1 62660U 25009BD  26095.17112975  .00016879  00000+0  61618-3 0  9996
2 62660  97.3955 177.0533 0002785 205.8140 154.2961 15.28193208125340
FLOCK 4G-2              
1 62661U 25009BE  26095.18383575  .00016147  00000+0  58526-3 0  9996
2 62661  97.4022 177.5748 0003730 203.4914 156.6156 15.28436366125374
FLOCK 4G-5              
1 62663U 25009BG  26095.15844406  .00012617  00000+0  44656-3 0  9997
2 62663  97.4037 177.8218 0003382 181.3056 178.8176 15.29273887 67776
FLOCK 4G-1              
1 62666U 25009BK  26095.48219741  .00014961  00000+0  54654-3 0  9997
2 62666  97.4034 177.8630 0004009 200.9104 159.1972 15.28195717 67807
FLOCK 4G-14             
1 62667U 25009BL  26095.48636939  .00014935  00000+0  55149-3 0  9991
2 62667  97.4037 177.7241 0004259 193.4091 166.7036 15.27839744 67793
FLOCK 4G-10             
1 62670U 25009BP  26095.50152414  .00014903  00000+0  54989-3 0  9995
2 62670  97.3937 177.1596 0003892 213.0585 147.0412 15.27866883125431
FLOCK 4G-36             
1 62675U 25009BU  26095.17171677  .00016546  00000+0  60835-3 0  9997
2 62675  97.4025 177.3300 0004322 201.2873 158.8187 15.27959525 67742
FLOCK 4G-15             
1 62678U 25009BX  26095.18160420  .00013575  00000+0  49952-3 0  9991
2 62678  97.4027 177.4729 0004593 198.5081 161.5992 15.27976486125398
FLOCK 4G-30             
1 62679U 25009BY  26095.17239965  .00013820  00000+0  50830-3 0  9992
2 62679  97.3938 176.8506 0003956 217.4504 142.6460 15.27988407125383
